[{"OBJECT_NAME":"STARLINK-5762","OBJECT_ID":"2023-020X","EPOCH":"2026-03-09T22:00:01.999584","MEAN_MOTION":15.1288855,"ECCENTRICITY":0.00011718,"INCLINATION":42.9999,"RA_OF_ASC_NODE":2.7146,"ARG_OF_PERICENTER":226.8204,"MEAN_ANOMALY":55.9647,"EPHEMERIS_TYPE":0,"CLASSIFICATION_TYPE":"U","NORAD_CAT_ID":55590,"ELEMENT_SET_NO":999,"REV_AT_EPOCH":577,"BSTAR":0.0010551385,"MEAN_MOTION_DOT":0.00018724,"MEAN_MOTION_DDOT":0},{"OBJECT_NAME":"OBJECT P","OBJECT_ID":"2023-091P","EPOCH":"2026-03-09T22:51:54.228672","MEAN_MOTION":15.15656196,"ECCENTRICITY":0.00167439,"INCLINATION":97.5224,"RA_OF_ASC_NODE":125.9166,"ARG_OF_PERICENTER":108.1275,"MEAN_ANOMALY":252.1782,"EPHEMERIS_TYPE":0,"CLASSIFICATION_TYPE":"U","NORAD_CAT_ID":57179,"ELEMENT_SET_NO":999,"REV_AT_EPOCH":14875,"BSTAR":0.00031146845,"MEAN_MOTION_DOT":5.878e-5,"MEAN_MOTION_DDOT":0}]
